STARLINK-36050          
1 66602U 25270Q   25345.58335648 -.02060913  00000+0 -39883-1 0  9991
2 66602  42.9996 199.4328 0001667 263.1005 168.2533 15.50284932  4117
STARLINK-36048          
1 66603U 25270R   25345.58335648 -.00515554  00000+0 -92764-2 0  9994
2 66603  42.9997 199.4276 0001797 249.1215 184.1611 15.50870084  4115
STARLINK-35977          
1 66604U 25270S   25345.58335648 -.00567716  00000+0 -10271-1 0  9994
2 66604  42.9996 199.4228 0001423 253.6217 181.5979 15.50904443  4216
STARLINK-36052          
1 66605U 25270T   25345.58335648 -.00105667  00000+0 -18181-2 0  9997
2 66605  42.9999 199.4184 0002088 259.3718 177.7894 15.50601331  4211
STARLINK-36063          
1 66606U 25270U   25345.58335648 -.00119746  00000+0 -20645-2 0  9999
2 66606  42.9998 199.4084 0001836 249.7780 191.2205 15.50607465  4213
STARLINK-35993          
1 66607U 25270V   25345.58335648 -.00095441  00000+0 -16398-2 0  9995
2 66607  42.9997 199.4139 0002003 258.4658 180.6097 15.50596827  4111
STARLINK-36036          
1 66608U 25270W   25345.58335648 -.00135530  00000+0 -23409-2 0  9991
2 66608  43.0000 199.4039 0001850 250.0033 192.9019 15.50620768  4057
STARLINK-36034          
1 66609U 25270X   25345.58335648 -.00094587  00000+0 -16247-2 0  9990
2 66609  42.9998 199.3998 0002057 257.7319 187.0898 15.50598637  4055
STARLINK-35680          
1 66610U 25270Y   25345.58335648 -.00088800  00000+0 -15242-2 0  9997
2 66610  42.9999 199.3947 0002064 262.5042 184.2411 15.50593002  4328
STARLINK-35583          
1 66611U 25270Z   25345.58335648 -.00097218  00000+0 -16707-2 0  9998
2 66611  42.9998 199.3895 0002107 260.8767 187.7845 15.50597090  4323
STARLINK-36039          
1 66612U 25270AA  25345.58335648 -.01938578  00000+0 -36417-1 0  9992
2 66612  42.9996 199.3838 0001839 267.5205 183.0167 15.50908783  4210
STARLINK-36037          
1 66613U 25270AB  25345.58335648 -.00110588  00000+0 -19024-2 0  9991
2 66613  42.9996 199.3790 0001985 261.9270 190.5464 15.50628588  4215
