CCSDS_OMM_VERS = 2.0
CREATION_DATE  = 
ORIGINATOR     = 

OBJECT_NAME    = STARLINK-36050
OBJECT_ID      = 2025-270Q
CENTER_NAME    = EARTH
REF_FRAME      = TEME
TIME_SYSTEM    = UTC
MEAN_ELEMENT_THEORY = SGP/SGP4

EPOCH          = 2025-12-11T14:00:01.999872
MEAN_MOTION    = 15.50284932
ECCENTRICITY   = .00016679
INCLINATION    = 42.9996
RA_OF_ASC_NODE = 199.4328
ARG_OF_PERICENTER = 263.1005
MEAN_ANOMALY   = 168.2533

EPHEMERIS_TYPE = 0
CLASSIFICATION_TYPE = U
NORAD_CAT_ID   = 66602
ELEMENT_SET_NO = 999
REV_AT_EPOCH   = 411
BSTAR          = -.39883413E-1
MEAN_MOTION_DOT = -.2060913E-1
MEAN_MOTION_DDOT = 0

CCSDS_OMM_VERS = 2.0
CREATION_DATE  = 
ORIGINATOR     = 

OBJECT_NAME    = STARLINK-36048
OBJECT_ID      = 2025-270R
CENTER_NAME    = EARTH
REF_FRAME      = TEME
TIME_SYSTEM    = UTC
MEAN_ELEMENT_THEORY = SGP/SGP4

EPOCH          = 2025-12-11T14:00:01.999872
MEAN_MOTION    = 15.50870084
ECCENTRICITY   = .00017973
INCLINATION    = 42.9997
RA_OF_ASC_NODE = 199.4276
ARG_OF_PERICENTER = 249.1215
MEAN_ANOMALY   = 184.1611

EPHEMERIS_TYPE = 0
CLASSIFICATION_TYPE = U
NORAD_CAT_ID   = 66603
ELEMENT_SET_NO = 999
REV_AT_EPOCH   = 411
BSTAR          = -.92764324E-2
MEAN_MOTION_DOT = -.515554E-2
MEAN_MOTION_DDOT = 0

CCSDS_OMM_VERS = 2.0
CREATION_DATE  = 
ORIGINATOR     = 

OBJECT_NAME    = STARLINK-35977
OBJECT_ID      = 2025-270S
CENTER_NAME    = EARTH
REF_FRAME      = TEME
TIME_SYSTEM    = UTC
MEAN_ELEMENT_THEORY = SGP/SGP4

EPOCH          = 2025-12-11T14:00:01.999872
MEAN_MOTION    = 15.50904443
ECCENTRICITY   = .00014238
INCLINATION    = 42.9996
RA_OF_ASC_NODE = 199.4228
ARG_OF_PERICENTER = 253.6217
MEAN_ANOMALY   = 181.5979

EPHEMERIS_TYPE = 0
CLASSIFICATION_TYPE = U
NORAD_CAT_ID   = 66604
ELEMENT_SET_NO = 999
REV_AT_EPOCH   = 421
BSTAR          = -.10271366E-1
MEAN_MOTION_DOT = -.567716E-2
MEAN_MOTION_DDOT = 0

CCSDS_OMM_VERS = 2.0
CREATION_DATE  = 
ORIGINATOR     = 

OBJECT_NAME    = STARLINK-36052
OBJECT_ID      = 2025-270T
CENTER_NAME    = EARTH
REF_FRAME      = TEME
TIME_SYSTEM    = UTC
MEAN_ELEMENT_THEORY = SGP/SGP4

EPOCH          = 2025-12-11T14:00:01.999872
MEAN_MOTION    = 15.50601331
ECCENTRICITY   = .00020887
INCLINATION    = 42.9999
RA_OF_ASC_NODE = 199.4184
ARG_OF_PERICENTER = 259.3718
MEAN_ANOMALY   = 177.7894

EPHEMERIS_TYPE = 0
CLASSIFICATION_TYPE = U
NORAD_CAT_ID   = 66605
ELEMENT_SET_NO = 999
REV_AT_EPOCH   = 421
BSTAR          = -.181813E-2
MEAN_MOTION_DOT = -.105667E-2
MEAN_MOTION_DDOT = 0

CCSDS_OMM_VERS = 2.0
CREATION_DATE  = 
ORIGINATOR     = 

OBJECT_NAME    = STARLINK-36063
OBJECT_ID      = 2025-270U
CENTER_NAME    = EARTH
REF_FRAME      = TEME
TIME_SYSTEM    = UTC
MEAN_ELEMENT_THEORY = SGP/SGP4

EPOCH          = 2025-12-11T14:00:01.999872
MEAN_MOTION    = 15.50607465
ECCENTRICITY   = .00018365
INCLINATION    = 42.9998
RA_OF_ASC_NODE = 199.4084
ARG_OF_PERICENTER = 249.7780
MEAN_ANOMALY   = 191.2205

EPHEMERIS_TYPE = 0
CLASSIFICATION_TYPE = U
NORAD_CAT_ID   = 66606
ELEMENT_SET_NO = 999
REV_AT_EPOCH   = 421
BSTAR          = -.20644569E-2
MEAN_MOTION_DOT = -.119746E-2
MEAN_MOTION_DDOT = 0

CCSDS_OMM_VERS = 2.0
CREATION_DATE  = 
ORIGINATOR     = 

OBJECT_NAME    = STARLINK-35993
OBJECT_ID      = 2025-270V
CENTER_NAME    = EARTH
REF_FRAME      = TEME
TIME_SYSTEM    = UTC
MEAN_ELEMENT_THEORY = SGP/SGP4

EPOCH          = 2025-12-11T14:00:01.999872
MEAN_MOTION    = 15.50596827
ECCENTRICITY   = .00020036
INCLINATION    = 42.9997
RA_OF_ASC_NODE = 199.4139
ARG_OF_PERICENTER = 258.4658
MEAN_ANOMALY   = 180.6097

EPHEMERIS_TYPE = 0
CLASSIFICATION_TYPE = U
NORAD_CAT_ID   = 66607
ELEMENT_SET_NO = 999
REV_AT_EPOCH   = 411
BSTAR          = -.16397566E-2
MEAN_MOTION_DOT = -.95441E-3
MEAN_MOTION_DDOT = 0

CCSDS_OMM_VERS = 2.0
CREATION_DATE  = 
ORIGINATOR     = 

OBJECT_NAME    = STARLINK-36036
OBJECT_ID      = 2025-270W
CENTER_NAME    = EARTH
REF_FRAME      = TEME
TIME_SYSTEM    = UTC
MEAN_ELEMENT_THEORY = SGP/SGP4

EPOCH          = 2025-12-11T14:00:01.999872
MEAN_MOTION    = 15.50620768
ECCENTRICITY   = .00018502
INCLINATION    = 43.0000
RA_OF_ASC_NODE = 199.4039
ARG_OF_PERICENTER = 250.0033
MEAN_ANOMALY   = 192.9019

EPHEMERIS_TYPE = 0
CLASSIFICATION_TYPE = U
NORAD_CAT_ID   = 66608
ELEMENT_SET_NO = 999
REV_AT_EPOCH   = 405
BSTAR          = -.23409335E-2
MEAN_MOTION_DOT = -.13553E-2
MEAN_MOTION_DDOT = 0

CCSDS_OMM_VERS = 2.0
CREATION_DATE  = 
ORIGINATOR     = 

OBJECT_NAME    = STARLINK-36034
OBJECT_ID      = 2025-270X
CENTER_NAME    = EARTH
REF_FRAME      = TEME
TIME_SYSTEM    = UTC
MEAN_ELEMENT_THEORY = SGP/SGP4

EPOCH          = 2025-12-11T14:00:01.999872
MEAN_MOTION    = 15.50598637
ECCENTRICITY   = .00020575
INCLINATION    = 42.9998
RA_OF_ASC_NODE = 199.3998
ARG_OF_PERICENTER = 257.7319
MEAN_ANOMALY   = 187.0898

EPHEMERIS_TYPE = 0
CLASSIFICATION_TYPE = U
NORAD_CAT_ID   = 66609
ELEMENT_SET_NO = 999
REV_AT_EPOCH   = 405
BSTAR          = -.16247374E-2
MEAN_MOTION_DOT = -.94587E-3
MEAN_MOTION_DDOT = 0

CCSDS_OMM_VERS = 2.0
CREATION_DATE  = 
ORIGINATOR     = 

OBJECT_NAME    = STARLINK-35680
OBJECT_ID      = 2025-270Y
CENTER_NAME    = EARTH
REF_FRAME      = TEME
TIME_SYSTEM    = UTC
MEAN_ELEMENT_THEORY = SGP/SGP4

EPOCH          = 2025-12-11T14:00:01.999872
MEAN_MOTION    = 15.50593002
ECCENTRICITY   = .00020646
INCLINATION    = 42.9999
RA_OF_ASC_NODE = 199.3947
ARG_OF_PERICENTER = 262.5042
MEAN_ANOMALY   = 184.2411

EPHEMERIS_TYPE = 0
CLASSIFICATION_TYPE = U
NORAD_CAT_ID   = 66610
ELEMENT_SET_NO = 999
REV_AT_EPOCH   = 432
BSTAR          = -.15241738E-2
MEAN_MOTION_DOT = -.888E-3
MEAN_MOTION_DDOT = 0

CCSDS_OMM_VERS = 2.0
CREATION_DATE  = 
ORIGINATOR     = 

OBJECT_NAME    = STARLINK-35583
OBJECT_ID      = 2025-270Z
CENTER_NAME    = EARTH
REF_FRAME      = TEME
TIME_SYSTEM    = UTC
MEAN_ELEMENT_THEORY = SGP/SGP4

EPOCH          = 2025-12-11T14:00:01.999872
MEAN_MOTION    = 15.50597090
ECCENTRICITY   = .0002107
INCLINATION    = 42.9998
RA_OF_ASC_NODE = 199.3895
ARG_OF_PERICENTER = 260.8767
MEAN_ANOMALY   = 187.7845

EPHEMERIS_TYPE = 0
CLASSIFICATION_TYPE = U
NORAD_CAT_ID   = 66611
ELEMENT_SET_NO = 999
REV_AT_EPOCH   = 432
BSTAR          = -.16707496E-2
MEAN_MOTION_DOT = -.97218E-3
MEAN_MOTION_DDOT = 0

CCSDS_OMM_VERS = 2.0
CREATION_DATE  = 
ORIGINATOR     = 

OBJECT_NAME    = STARLINK-36039
OBJECT_ID      = 2025-270AA
CENTER_NAME    = EARTH
REF_FRAME      = TEME
TIME_SYSTEM    = UTC
MEAN_ELEMENT_THEORY = SGP/SGP4

EPOCH          = 2025-12-11T14:00:01.999872
MEAN_MOTION    = 15.50908783
ECCENTRICITY   = .00018398
INCLINATION    = 42.9996
RA_OF_ASC_NODE = 199.3838
ARG_OF_PERICENTER = 267.5205
MEAN_ANOMALY   = 183.0167

EPHEMERIS_TYPE = 0
CLASSIFICATION_TYPE = U
NORAD_CAT_ID   = 66612
ELEMENT_SET_NO = 999
REV_AT_EPOCH   = 421
BSTAR          = -.36416783E-1
MEAN_MOTION_DOT = -.1938578E-1
MEAN_MOTION_DDOT = 0

CCSDS_OMM_VERS = 2.0
CREATION_DATE  = 
ORIGINATOR     = 

OBJECT_NAME    = STARLINK-36037
OBJECT_ID      = 2025-270AB
CENTER_NAME    = EARTH
REF_FRAME      = TEME
TIME_SYSTEM    = UTC
MEAN_ELEMENT_THEORY = SGP/SGP4

EPOCH          = 2025-12-11T14:00:01.999872
MEAN_MOTION    = 15.50628588
ECCENTRICITY   = .0001985
INCLINATION    = 42.9996
RA_OF_ASC_NODE = 199.3790
ARG_OF_PERICENTER = 261.9270
MEAN_ANOMALY   = 190.5464

EPHEMERIS_TYPE = 0
CLASSIFICATION_TYPE = U
NORAD_CAT_ID   = 66613
ELEMENT_SET_NO = 999
REV_AT_EPOCH   = 421
BSTAR          = -.19024407E-2
MEAN_MOTION_DOT = -.110588E-2
MEAN_MOTION_DDOT = 0

